{
  "type": "FeatureCollection",
  "features": [
    {
      "type": "Feature",
      "properties": {"layer": "airspace", "name": "Разрешенное пространство (Екатеринбург)", "h_min": 0, "h_max": 300},
      "geometry": { "type": "Polygon", "coordinates": [[[60.3, 56.65], [60.95, 56.65], [60.95, 56.98], [60.3, 56.98], [60.3, 56.65]]] }
    },
    {
      "type": "Feature",
      "properties": {"layer": "no_fly", "name": "БПЗ аэропорт Кольцово (круг)", "safety_buffer_m": 200},
      "geometry": { "type": "Polygon", "coordinates": [[[60.876602, 56.7431], [60.874749, 56.752121], [60.869283, 56.76069], [60.860479, 56.768377], [60.848777, 56.774796], [60.834765, 56.779626], [60.819145, 56.782624], [60.8027, 56.783641], [60.786255, 56.782624], [60.770635, 56.779626], [60.756623, 56.774796], [60.744921, 56.768377], [60.736117, 56.76069], [60.730651, 56.752121], [60.728798, 56.7431], [60.730651, 56.734079], [60.736117, 56.72551], [60.744921, 56.717823], [60.756623, 56.711404], [60.770635, 56.706574], [60.786255, 56.703576], [60.8027, 56.702559], [60.819145, 56.703576], [60.834765, 56.706574], [60.848777, 56.711404], [60.860479, 56.717823], [60.869283, 56.72551], [60.874749, 56.734079], [60.876602, 56.7431]]] }
    },
    {
      "type": "Feature",
      "properties": {"layer": "no_fly", "name": "БПЗ коридор ЛЭП (вытянутый прямоугольник)", "safety_buffer_m": 100},
      "geometry": { "type": "Polygon", "coordinates": [[[60.5, 56.8], [60.78, 56.855], [60.775, 56.865], [60.495, 56.81], [60.5, 56.8]]] }
    },
    {
      "type": "Feature",
      "properties": {"layer": "no_fly", "name": "БПЗ режимный объект (Г-образная)", "safety_buffer_m": 150},
      "geometry": { "type": "Polygon", "coordinates": [[[60.64, 56.87], [60.67, 56.87], [60.67, 56.887], [60.658, 56.887], [60.658, 56.9], [60.64, 56.9], [60.64, 56.87]]] }
    },
    {
      "type": "Feature",
      "properties": {"layer": "no_fly", "name": "БПЗ промзона (треугольная)", "safety_buffer_m": 80},
      "geometry": { "type": "Polygon", "coordinates": [[[60.56, 56.7], [60.615, 56.7], [60.588, 56.735], [60.56, 56.7]]] }
    },
    {
      "type": "Feature",
      "properties": {"layer": "obstacle", "name": "БЦ «Высоцкий» (высотное здание)", "h_min": 0, "h_max": 188},
      "geometry": { "type": "Polygon", "coordinates": [[[60.600361, 56.837595], [60.601839, 56.837595], [60.601839, 56.838405], [60.600361, 56.838405], [60.600361, 56.837595]]] }
    },
    {
      "type": "Feature",
      "properties": {"layer": "obstacle", "name": "Высотная башня в деловом центре", "h_min": 0, "h_max": 209},
      "geometry": { "type": "Polygon", "coordinates": [[[60.596843, 56.84034], [60.598157, 56.84034], [60.598157, 56.84106], [60.596843, 56.84106], [60.596843, 56.84034]]] }
    },
    {
      "type": "Feature",
      "properties": {"layer": "obstacle", "name": "Труба ТЭЦ", "h_min": 0, "h_max": 250},
      "geometry": { "type": "Polygon", "coordinates": [[[60.699672, 56.77982], [60.700328, 56.77982], [60.700328, 56.78018], [60.699672, 56.78018], [60.699672, 56.77982]]] }
    },
    {
      "type": "Feature",
      "properties": {"layer": "obstacle", "name": "Радиомачта", "h_min": 0, "h_max": 220},
      "geometry": { "type": "Polygon", "coordinates": [[[60.519754, 56.899865], [60.520246, 56.899865], [60.520246, 56.900135], [60.519754, 56.900135], [60.519754, 56.899865]]] }
    },
    {
      "type": "Feature",
      "properties": {"layer": "obstacle", "name": "Строительный кран", "h_min": 0, "h_max": 110},
      "geometry": { "type": "Polygon", "coordinates": [[[60.749795, 56.869887], [60.750205, 56.869887], [60.750205, 56.870113], [60.749795, 56.870113], [60.749795, 56.869887]]] }
    },
    {
      "type": "Feature",
      "properties": {"layer": "obstacle", "name": "Мачта сотовой связи (северо-запад)", "h_min": 0, "h_max": 100},
      "geometry": { "type": "Polygon", "coordinates": [[[60.399795, 56.899887], [60.400205, 56.899887], [60.400205, 56.900113], [60.399795, 56.900113], [60.399795, 56.899887]]] }
    },
    {
      "type": "Feature",
      "properties": {"layer": "obstacle", "name": "Элеватор", "h_min": 0, "h_max": 55},
      "geometry": { "type": "Polygon", "coordinates": [[[60.47963, 56.729797], [60.48037, 56.729797], [60.48037, 56.730203], [60.47963, 56.730203], [60.47963, 56.729797]]] }
    },
    {
      "type": "Feature",
      "properties": {"layer": "obstacle", "name": "Пилон моста", "h_min": 0, "h_max": 95},
      "geometry": { "type": "Polygon", "coordinates": [[[60.629836, 56.74991], [60.630164, 56.74991], [60.630164, 56.75009], [60.629836, 56.75009], [60.629836, 56.74991]]] }
    },
    {
      "type": "Feature",
      "properties": {"layer": "obstacle", "name": "Мачта сотовой связи (север)", "h_min": 0, "h_max": 120},
      "geometry": { "type": "Polygon", "coordinates": [[[60.749795, 56.949887], [60.750205, 56.949887], [60.750205, 56.950113], [60.749795, 56.950113], [60.749795, 56.949887]]] }
    },
    {
      "type": "Feature",
      "properties": {"layer": "obstacle", "name": "Опора высоковольтной ЛЭП", "h_min": 0, "h_max": 140},
      "geometry": { "type": "Polygon", "coordinates": [[[60.899836, 56.74991], [60.900164, 56.74991], [60.900164, 56.75009], [60.899836, 56.75009], [60.899836, 56.74991]]] }
    },
    {
      "type": "Feature",
      "properties": {"layer": "obstacle", "name": "Колокольня", "h_min": 0, "h_max": 65},
      "geometry": { "type": "Polygon", "coordinates": [[[60.614754, 56.839865], [60.615246, 56.839865], [60.615246, 56.840135], [60.614754, 56.840135], [60.614754, 56.839865]]] }
    },
    {
      "type": "Feature",
      "properties": {"layer": "launch_site", "name": "Аэродром Уктус"},
      "geometry": { "type": "Point", "coordinates": [60.5992, 56.7625] }
    },
    {
      "type": "Feature",
      "properties": {"layer": "launch_site", "name": "Площадка Верхняя Пышма"},
      "geometry": { "type": "Point", "coordinates": [60.5636, 56.975] }
    },
    {
      "type": "Feature",
      "properties": {"layer": "launch_site", "name": "Площадка Березовский"},
      "geometry": { "type": "Point", "coordinates": [60.81, 56.908] }
    },
    {
      "type": "Feature",
      "properties": {"layer": "reserve_site", "name": "Резерв Компрессорный"},
      "geometry": { "type": "Point", "coordinates": [60.7, 56.86] }
    },
    {
      "type": "Feature",
      "properties": {"layer": "reserve_site", "name": "Резерв Арамиль"},
      "geometry": { "type": "Point", "coordinates": [60.84, 56.7] }
    }
  ]
}
